AEROCUBE 12A            
1 43556U 18046C   20350.35268529  .00002223  00000-0  86084-4 0  9991
2 43556  51.6411 315.9556 0007373 219.7453 140.2988 15.30629927135070
AEROCUBE 12B            
1 43557U 18046D   20350.64772812  .00003250  00000-0  12166-3 0  9999
2 43557  51.6419 315.6557 0007649 220.8859 139.1548 15.30221808135059
SIRIUSSAT-1             
1 43595U 98067PG  20344.55055662  .07916525  12514-4  56251-3 0  9997
2 43595  51.6588  97.6693 0009437  42.2825  52.9592 16.39998780132780
SIRIUSSAT-2             
1 43596U 98067PH  20344.36554324  .08904132  12494-4  57179-3 0  9995
2 43596  51.6062  99.6513 0006261 312.7483  99.6145 16.40921535132742
SURFSAT                 
1 43614U 18070B   20351.45309882  .00004430  00000-0  10929-3 0  9999
2 43614  93.0275 230.0033 0014858   5.0920 355.0483 15.40465925126489
CP7 (DAVE)              
1 43615U 18070C   20351.43998894  .00004215  00000-0  10472-3 0  9999
2 43615  93.0277 229.9753 0015001   4.7660 355.3735 15.40247629126477
ELFIN-B                 
1 43616U 18070D   20350.64540728  .00006294  00000-0  14651-3 0  9993
2 43616  93.0237 229.6656 0015373   7.9590 352.1906 15.42187036126429
ELFIN-A                 
1 43617U 18070E   20350.65085652  .00006398  00000-0  14735-3 0  9993
2 43617  93.0291 230.3393 0014599   5.3408 354.8001 15.42519183126434
CUBEBEL-1 (BSUSAT-1)    
1 43666U 18083E   20351.52636661  .00001924  00000-0  95725-4 0  9999
2 43666  97.4741  16.0829 0016419  86.5190  71.0796 15.18713778118249
CICERO 10               
1 43690U 18088A   20350.68711177  .00001812  00000-0  80591-4 0  9994
2 43690  85.0364 318.8724 0015300  14.6860 345.4822 15.20650718116299
IRVINE01                
1 43693U 18088D   20350.66852606  .00004979  00000-0  20328-3 0  9996
2 43693  85.0336 316.9725 0016795 353.1008   7.0000 15.24001593116435
PROXIMA I               
1 43694U 18088E   20350.66864659  .00002037  00000-0  86114-4 0  9997
2 43694  85.0308 316.9581 0018183 344.4456  15.6225 15.22396545116412
PROXIMA II              
1 43696U 18088G   20350.66675158  .00002074  00000-0  87733-4 0  9992
2 43696  85.0309 316.9652 0018230 344.3672  15.7004 15.22396489116408
FACSAT-1                
1 43721U 18096C   20351.48053155  .00003061  00000-0  11460-3 0  9998
2 43721  97.4063  63.9641 0016682 194.6527 294.0558 15.27941091114170
CENTAURI-2              
1 43722U 18096D   20350.68983743  .00003704  00000-0  13500-3 0  9996
2 43722  97.4071  63.6561 0016739 196.5828 163.4867 15.28693614114073
INNOSAT-2               
1 43738U 18096V   20351.51600876  .00005528  00000-0  18221-3 0  9990
2 43738  97.4111  67.2605 0021875 199.3080 218.0233 15.31644252114388
SIRION PATHFINDER-2     
1 43759U 18099B   20351.45824307 -.00000069  00000-0 -10387-5 0  9990
2 43759  97.6880  59.8342 0013171 297.9210  62.0700 14.95378843111136
CORVUS BC4              
1 43767U 18099K   20351.46719808  .00000317  00000-0  34293-4 0  9994
2 43767  97.6861  59.0517 0010400 302.6561  57.3669 14.94817947111093
MOVE-II                 
1 43780U 18099Y   20351.18271570  .00000363  00000-0  37776-4 0  9997
2 43780  97.6892  59.5693 0012355 311.0015  49.0137 14.95632409111076
SPACEBEE-7              
1 43816U 18099BL  20351.15522625  .00001021  00000-0  96375-4 0  9996
2 43816  97.6909  60.0416 0011843 293.9661  66.0319 14.95888288110653
SPACEBEE-5              
1 43817U 18099BM  20351.15560260  .00002145  00000-0  19239-3 0  9995
2 43817  97.6979  60.8241 0011433 292.4380  67.5630 14.96764570110685
SPACEBEE-6              
1 43818U 18099BN  20351.15870573  .00001236  00000-0  11474-3 0  9990
2 43818  97.6931  60.2862 0011713 293.5056  66.4934 14.96158037110815
SHIELDS 1               
1 43850U 18104B   20351.18819823  .00000804  00000-0  33682-4 0  9993
2 43850  85.0302  55.1851 0016898 118.3802 241.9146 15.21608103111108
STF-1                   
1 43852U 18104D   20350.67481309  .00002018  00000-0  86937-4 0  9992
2 43852  85.0346  56.1652 0016161 133.1747 227.0849 15.21791263111008
ZACUBE-2                
1 43907U 18111AH  20351.53062707  .00000907  00000-0  39151-4 0  9995
2 43907  97.2498 245.6267 0020000 217.2608 265.9589 15.24856420109757
LUME 1                  
1 43908U 18111AJ  20350.71192337  .00001914  00000-0  77843-4 0  9997
2 43908  97.2500 245.1536 0019651 218.6443 141.3391 15.25555432109655
AOBA VELOX-IV           
1 43940U 19003J   20351.42178327  .00002959  00000-0  11757-3 0  9997
2 43940  97.2052  36.2910 0021735 301.1834  58.7274 15.25864645106383
CATSAT-2                
1 44029U 98067PV  20351.40009898  .00053460  00000-0  33604-3 0  9995
2 44029  51.6394 108.5217 0001999  24.3546 335.7548 15.76178560107093
DELPHINI                
1 44030U 98067PW  20350.78484495  .00074085  00000-0  39405-3 0  9998
2 44030  51.6313 107.9199 0002902 356.0632   4.0346 15.79785470107015
UNITE                   
1 44031U 98067PX  20350.79287196  .00022973  00000-0  21902-3 0  9991
2 44031  51.6366 125.4602 0002074  27.8803 332.2304 15.66678761106784
CATSAT-1                
1 44033U 98067PZ  20351.39990292  .00061160  00000-0  38352-3 0  9996
2 44033  51.6395 108.5305 0002123  22.4448 337.6645 15.76177797107008
RAAVANA-1               
1 44329U 98067QE  20350.67563025  .00023679  00000-0  25405-3 0  9992
2 44329  51.6360 142.7725 0004851 312.4467  47.6117 15.63666011 85293
UGUISU                  
1 44330U 98067QF  20351.46807951  .00024728  00000-0  26632-3 0  9990
2 44330  51.6342 139.0158 0004852 314.9510  45.1090 15.63540411 85390
NEPALISAT-1             
1 44331U 98067QG  20350.66669781  .00024180  00000-0  25934-3 0  9995
2 44331  51.6340 142.6661 0004799 315.6763  44.3847 15.63661165 85285
SPOOQY-1                
1 44332U 98067QH  20351.45435068  .00024524  00000-0  26522-3 0  9999
2 44332  51.6353 138.9407 0004021 320.5424  39.5278 15.63443569 85362
SPACEBEE-9              
1 44370U 19037F   20350.89543803  .00016739  00000-0  31914-3 0  9995
2 44370  45.0023 178.7749 0013467 196.7399 163.3049 15.47930115 82666
SPACEBEE-8              
1 44371U 19037G   20351.47504073  .00053854  00000-0  69296-3 0  9990
2 44371  45.0026 160.2899 0013015 233.1858 126.7843 15.58228339 82910
IOD-1 GEMS              
1 44385U 98067QK  20350.84109943  .00056623  00000-0  43356-3 0  9998
2 44385  51.6356 134.9038 0003659 278.4812  81.5771 15.71553595 82875
MOVE-IIB                
1 44398U 19038N   20350.88508308  .00002377  00000-0  13787-3 0  9997
2 44398  97.5584 310.0954 0023385 220.0416 139.9092 15.12923727 80006
SONATE                  
1 44400U 19038Q   20350.84593126  .00000612  00000-0  39070-4 0  9993
2 44400  97.5650 310.0378 0023703 219.9285 140.0203 15.12217371 79982
LUCKY-7                 
1 44406U 19038W   20350.62902510  .00001110  00000-0  67137-4 0  9995
2 44406  97.5649 309.9933 0023271 219.0525 140.9027 15.12538885 79954
BEESAT 9                
1 44412U 19038AC  20350.94422283  .00001456  00000-0  86505-4 0  9994
2 44412  97.5639 310.2947 0021208 223.5418 136.4140 15.12726885 79707
JAISAT-1                
1 44419U 19038F   20350.64200887  .00001525  00000-0  89258-4 0  9997
2 44419  97.5640 310.3978 0020051 223.1326 136.8335 15.13209430 79994
SWIATOWID               
1 44426U 98067QL  20351.43665230  .00082697  00000-0  54476-3 0  9991
2 44426  51.6362 128.9837 0004022 274.8279 125.2319 15.74921603 83024
KRAKSAT                 
1 44427U 98067QM  20351.51720060  .00016539  00000-0  20656-3 0  9999
2 44427  51.6411 145.2090 0003007 263.4023 212.7915 15.59989096 82853
VCC A                   
1 44428U 98067QN  20350.88291334  .00023249  00000-0  25902-3 0  9991
2 44428  51.6371 144.2107 0002594 277.9771  82.0929 15.62717545 82818
ENTRYSAT                
1 44429U 98067QP  20351.44687837  .00032499  00000-0  32585-3 0  9994
2 44429  51.6341 138.1620 0002685 273.6975  86.3713 15.65208587 82944
VCC C                   
1 44430U 98067QQ  20350.88178306  .00044149  00000-0  38278-3 0  9999
2 44430  51.6348 137.3878 0002704 278.6771  81.3919 15.68667232 81727
VCC B                   
1 44431U 98067QR  20350.68194940  .00022854  00000-0  25336-3 0  9990
2 44431  51.6346 145.0760 0002719 276.8869  83.1816 15.62856072 82729
DUCHIFAT-3              
1 44854U 19089C   20351.39277581  .00000831  00000-0  73239-4 0  9995
2 44854  36.9656 103.0071 0006947  90.7872 269.3672 14.99253419 55612
EYESAT-NANO             
1 44877U 19092E   20350.66693600  .00001527  00000-0  79745-4 0  9998
2 44877  97.4546 171.0472 0014850 107.4008 252.8851 15.17326560 55060
ORBITAL FACTORY 2 (OF-2)
1 45113U 19071C   20351.08031560  .00003676  00000-0  11983-3 0  9993
2 45113  51.6405 205.6618 0012198 355.0192   5.0667 15.34373634 49007
M2 PATHFINDER           
1 45727U 20037E   20351.04592989  .00000349  00000-0  40557-4 0  9995
2 45727  97.7033 166.9574 0013942  60.3903 299.8706 14.91280093 25087
NETSAT-4                
1 46504U 20068U   20350.83203081  .00001225  00000-0  98225-4 0  9990
2 46504  97.6732 283.4153 0010598   5.3381 354.7955 15.01921074 11677
NETSAT-3                
1 46505U 20068V   20350.83408282  .00001352  00000-0  10806-3 0  9990
2 46505  97.6724 283.4088 0009943   5.2301 354.9024 15.01879115 11687
NETSAT-1                
1 46506U 20068W   20350.76968640  .00001483  00000-0  11817-3 0  9990
2 46506  97.6710 283.3363 0010180   5.5889 354.5448 15.01835603 11676
NETSAT-2                
1 46507U 20068X   20350.90375026  .00001419  00000-0  11340-3 0  9997
2 46507  97.6706 283.4688 0010130   5.9141 354.2201 15.01815134 11641
SPOC                    
1 46921U 98067RR  20350.69914463  .00007379  00000-0  13263-3 0  9998
2 46921  51.6410 169.9415 0002791 118.2491 241.8780 15.50962468  6317
BOBCAT-1                
1 46922U 98067RS  20350.69644310  .00010267  00000-0  17975-3 0  9994
2 46922  51.6411 169.9240 0002510 125.3846 234.7378 15.51226085  6275
